start=new Date('2023-05-02T00:00:00.000Z').valueOf();
sats=[{"MEAN_MOTION_DDOT":"0.0000000000000","COUNTRY_CODE":"US","MEAN_MOTION":"15.14291498","REF_FRAME":"TEME","BSTAR":"0.00173110000000","DECAY_DATE":null,"RCS_SIZE":"LARGE","ARG_OF_PERICENTER":"87.4310","REV_AT_EPOCH":"15907","TIME_SYSTEM":"UTC","SITE":"AFETR","LAUNCH_DATE":"2020-06-13","TLE_LINE2":"2 45734  53.0547 232.4306 0001324  87.4310 272.6834 15.14291498159070","ELEMENT_SET_NO":"999","OBJECT_NAME":"STARLINK-1468","MEAN_ELEMENT_THEORY":"SGP4","PERIOD":"95.094","RA_OF_ASC_NODE":"232.4306","TLE_LINE1":"1 45734U 20038E   23121.59956710  .00031897  00000-0  17311-2 0  9990","INCLINATION":"53.0547","FILE":"3898518","MEAN_MOTION_DOT":"0.00031897","SEMIMAJOR_AXIS":"6901.267","OBJECT_ID":"2020-038E","EPHEMERIS_TYPE":"0","EPOCH":"2023-05-01T14:23:22.597440","APOAPSIS":"524.046","PERIAPSIS":"522.219","MEAN_ANOMALY":"272.6834","OBJECT_TYPE":"PAYLOAD","NORAD_CAT_ID":"45734","CENTER_NAME":"EARTH","ECCENTRICITY":"0.00013240","GP_ID":"231050580","CLASSIFICATION_TYPE":"U"},{"CLASSIFICATION_TYPE":"U","GP_ID":"231049338","ECCENTRICITY":"0.00013370","CENTER_NAME":"EARTH","MEAN_ANOMALY":"269.0158","OBJECT_TYPE":"PAYLOAD","NORAD_CAT_ID":"45735","PERIAPSIS":"546.198","APOAPSIS":"548.050","EPOCH":"2023-05-01T18:09:17.559072","EPHEMERIS_TYPE":"0","FILE":"3898518","MEAN_MOTION_DOT":"0.00018817","SEMIMAJOR_AXIS":"6925.259","OBJECT_ID":"2020-038F","INCLINATION":"53.0544","TLE_LINE1":"1 45735U 20038F   23121.75645323  .00018817  00000-0  12778-2 0  9993","RA_OF_ASC_NODE":"238.5246","PERIOD":"95.590","MEAN_ELEMENT_THEORY":"SGP4","OBJECT_NAME":"STARLINK-1471","ELEMENT_SET_NO":"999","TLE_LINE2":"2 45735  53.0544 238.5246 0001337  91.0984 269.0158 15.06429197158999","SITE":"AFETR","LAUNCH_DATE":"2020-06-13","TIME_SYSTEM":"UTC","REV_AT_EPOCH":"15899","DECAY_DATE":null,"RCS_SIZE":"LARGE","BSTAR":"0.00127780000000","ARG_OF_PERICENTER":"91.0984","REF_FRAME":"TEME","MEAN_MOTION":"15.06429197","COUNTRY_CODE":"US","MEAN_MOTION_DDOT":"0.0000000000000"},{"MEAN_MOTION":"15.53975267","REF_FRAME":"TEME","MEAN_MOTION_DDOT":"0.0000000000000","COUNTRY_CODE":"US","REV_AT_EPOCH":"16056","RCS_SIZE":"LARGE","DECAY_DATE":null,"BSTAR":"0.00050776000000","ARG_OF_PERICENTER":"356.8355","TLE_LINE2":"2 45736  53.0554 127.4203 0003002 356.8355   3.2635 15.53975267160565","ELEMENT_SET_NO":"999","TIME_SYSTEM":"UTC","LAUNCH_DATE":"2020-06-13","SITE":"AFETR","OBJECT_NAME":"STARLINK-1472","MEAN_ELEMENT_THEORY":"SGP4","TLE_LINE1":"1 45736U 20038G   23121.59086697  .00033047  00000-0  50776-3 0  9992","PERIOD":"92.666","RA_OF_ASC_NODE":"127.4203","EPHEMERIS_TYPE":"0","INCLINATION":"53.0554","OBJECT_ID":"2020-038G","FILE":"3898518","SEMIMAJOR_AXIS":"6783.270","MEAN_MOTION_DOT":"0.00033047","PERIAPSIS":"403.099","OBJECT_TYPE":"PAYLOAD","NORAD_CAT_ID":"45736","MEAN_ANOMALY":"3.2635","EPOCH":"2023-05-01T14:10:50.906208","APOAPSIS":"407.171","CLASSIFICATION_TYPE":"U","CENTER_NAME":"EARTH","ECCENTRICITY":"0.00030020","GP_ID":"231050088"},{"EPOCH":"2023-05-01T14:42:18.017856","APOAPSIS":"548.309","PERIAPSIS":"546.161","NORAD_CAT_ID":"45738","OBJECT_TYPE":"PAYLOAD","MEAN_ANOMALY":"284.7152","CENTER_NAME":"EARTH","ECCENTRICITY":"0.00015510","GP_ID":"231050339","CLASSIFICATION_TYPE":"U","PERIOD":"95.593","RA_OF_ASC_NODE":"239.1667","TLE_LINE1":"1 45738U 20038J   23121.61270854  .00010637  00000-0  73206-3 0  9990","INCLINATION":"53.0527","FILE":"3898518","OBJECT_ID":"2020-038J","SEMIMAJOR_AXIS":"6925.370","MEAN_MOTION_DOT":"0.00010637","EPHEMERIS_TYPE":"0","TIME_SYSTEM":"UTC","LAUNCH_DATE":"2020-06-13","SITE":"AFETR","TLE_LINE2":"2 45738  53.0527 239.1667 0001551  75.4009 284.7152 15.06393078158973","ELEMENT_SET_NO":"999","OBJECT_NAME":"STARLINK-1474","MEAN_ELEMENT_THEORY":"SGP4","MEAN_MOTION_DDOT":"0.0000000000000","COUNTRY_CODE":"US","MEAN_MOTION":"15.06393078","REF_FRAME":"TEME","DECAY_DATE":null,"BSTAR":"0.00073206000000","RCS_SIZE":"LARGE","ARG_OF_PERICENTER":"75.4009","REV_AT_EPOCH":"15897"},{"PERIAPSIS":"546.144","NORAD_CAT_ID":"45739","OBJECT_TYPE":"PAYLOAD","MEAN_ANOMALY":"268.6251","APOAPSIS":"548.121","EPOCH":"2023-05-01T15:02:11.563008","CLASSIFICATION_TYPE":"U","ECCENTRICITY":"0.00014270","GP_ID":"231051081","CENTER_NAME":"EARTH","TLE_LINE1":"1 45739U 20038K   23121.62652272  .00017625  00000-0  11983-2 0  9997","RA_OF_ASC_NODE":"199.0977","PERIOD":"95.590","EPHEMERIS_TYPE":"0","SEMIMAJOR_AXIS":"6925.268","FILE":"3898518","OBJECT_ID":"2020-038K","MEAN_MOTION_DOT":"0.00017625","INCLINATION":"53.0537","ELEMENT_SET_NO":"999","TLE_LINE2":"2 45739  53.0537 199.0977 0001427  91.4902 268.6251 15.06426372159533","LAUNCH_DATE":"2020-06-13","SITE":"AFETR","TIME_SYSTEM":"UTC","OBJECT_NAME":"STARLINK-1475","MEAN_ELEMENT_THEORY":"SGP4","MEAN_MOTION":"15.06426372","REF_FRAME":"TEME","COUNTRY_CODE":"US","MEAN_MOTION_DDOT":"0.0000000000000","REV_AT_EPOCH":"15953","RCS_SIZE":"LARGE","DECAY_DATE":null,"BSTAR":"0.00119830000000","ARG_OF_PERICENTER":"91.4902"},{"REV_AT_EPOCH":"15898","DECAY_DATE":null,"RCS_SIZE":"LARGE","BSTAR":"0.00102930000000","ARG_OF_PERICENTER":"83.0024","REF_FRAME":"TEME","MEAN_MOTION":"15.06404417","MEAN_MOTION_DDOT":"0.0000000000000","COUNTRY_CODE":"US","MEAN_ELEMENT_THEORY":"SGP4","OBJECT_NAME":"STARLINK-1479","TLE_LINE2":"2 45740  53.0535 238.8404 0000909  83.0024 277.1068 15.06404417158981","ELEMENT_SET_NO":"999","TIME_SYSTEM":"UTC","SITE":"AFETR","LAUNCH_DATE":"2020-06-13","EPHEMERIS_TYPE":"0","INCLINATION":"53.0535","MEAN_MOTION_DOT":"0.00015085","FILE":"3898518","SEMIMAJOR_AXIS":"6925.335","OBJECT_ID":"2020-038L","TLE_LINE1":"1 45740U 20038L   23121.68643842  .00015085  00000-0  10293-2 0  9999","PERIOD":"95.592","RA_OF_ASC_NODE":"238.8404","CLASSIFICATION_TYPE":"U","CENTER_NAME":"EARTH","GP_ID":"231049838","ECCENTRICITY":"0.00009090","MEAN_ANOMALY":"277.1068","OBJECT_TYPE":"PAYLOAD","NORAD_CAT_ID":"45740","PERIAPSIS":"546.571","EPOCH":"2023-05-01T16:28:28.279488","APOAPSIS":"547.830"},{"GP_ID":"231049588","ECCENTRICITY":"0.00011090","CENTER_NAME":"EARTH","CLASSIFICATION_TYPE":"U","APOAPSIS":"547.902","EPOCH":"2023-05-01T15:45:59.755104","MEAN_ANOMALY":"260.5149","OBJECT_TYPE":"PAYLOAD","NORAD_CAT_ID":"45741","PERIAPSIS":"546.366","FILE":"3898518","OBJECT_ID":"2020-038M","SEMIMAJOR_AXIS":"6925.269","MEAN_MOTION_DOT":"0.00018999","INCLINATION":"53.0545","EPHEMERIS_TYPE":"0","RA_OF_ASC_NODE":"238.9754","PERIOD":"95.590","TLE_LINE1":"1 45741U 20038M   23121.65694161  .00018999  00000-0  12900-2 0  9991","MEAN_ELEMENT_THEORY":"SGP4","OBJECT_NAME":"STARLINK-1480","LAUNCH_DATE":"2020-06-13","SITE":"AFETR","TIME_SYSTEM":"UTC","ELEMENT_SET_NO":"999","TLE_LINE2":"2 45741  53.0545 238.9754 0001109  99.5966 260.5149 15.06426043158998","BSTAR":"0.00129000000000","DECAY_DATE":null,"RCS_SIZE":"LARGE","ARG_OF_PERICENTER":"99.5966","REV_AT_EPOCH":"15899","COUNTRY_CODE":"US","MEAN_MOTION_DDOT":"0.0000000000000","REF_FRAME":"TEME","MEAN_MOTION":"15.06426043"},{"APOAPSIS":"547.912","EPOCH":"2023-05-01T17:10:55.735104","MEAN_ANOMALY":"258.6783","OBJECT_TYPE":"PAYLOAD","NORAD_CAT_ID":"45742","PERIAPSIS":"546.387","GP_ID":"231050840","ECCENTRICITY":"0.00011010","CENTER_NAME":"EARTH","CLASSIFICATION_TYPE":"U","RA_OF_ASC_NODE":"238.7073","PERIOD":"95.591","TLE_LINE1":"1 45742U 20038N   23121.71592286  .00016450  00000-0  11200-2 0  9996","SEMIMAJOR_AXIS":"6925.285","FILE":"3898518","MEAN_MOTION_DOT":"0.00016450","OBJECT_ID":"2020-038N","INCLINATION":"53.0533","EPHEMERIS_TYPE":"0","SITE":"AFETR","LAUNCH_DATE":"2020-06-13","TIME_SYSTEM":"UTC","ELEMENT_SET_NO":"999","TLE_LINE2":"2 45742  53.0533 238.7073 0001101 101.4329 258.6783 15.06420822158986","MEAN_ELEMENT_THEORY":"SGP4","OBJECT_NAME":"STARLINK-1481","COUNTRY_CODE":"US","MEAN_MOTION_DDOT":"0.0000000000000","REF_FRAME":"TEME","MEAN_MOTION":"15.06420822","DECAY_DATE":null,"RCS_SIZE":"LARGE","ARG_OF_PERICENTER":"101.4329","BSTAR":"0.00112000000000","REV_AT_EPOCH":"15898"},{"OBJECT_NAME":"STARLINK-1483","MEAN_ELEMENT_THEORY":"SGP4","ELEMENT_SET_NO":"999","TLE_LINE2":"2 45743  53.0538 238.5543 0001207  93.1205 266.9922 15.06407216158999","LAUNCH_DATE":"2020-06-13","SITE":"AFETR","TIME_SYSTEM":"UTC","REV_AT_EPOCH":"15899","ARG_OF_PERICENTER":"93.1205","DECAY_DATE":null,"RCS_SIZE":"LARGE","BSTAR":"0.00053120000000","MEAN_MOTION":"15.06407216","REF_FRAME":"TEME","COUNTRY_CODE":"US","MEAN_MOTION_DDOT":"0.0000000000000","CLASSIFICATION_TYPE":"U","ECCENTRICITY":"0.00012070","GP_ID":"231050581","CENTER_NAME":"EARTH","PERIAPSIS":"546.356","NORAD_CAT_ID":"45743","OBJECT_TYPE":"PAYLOAD","MEAN_ANOMALY":"266.9922","APOAPSIS":"548.027","EPOCH":"2023-05-01T17:36:05.575104","EPHEMERIS_TYPE":"0","FILE":"3898518","SEMIMAJOR_AXIS":"6925.326","OBJECT_ID":"2020-038P","MEAN_MOTION_DOT":"0.00007641","INCLINATION":"53.0538","TLE_LINE1":"1 45743U 20038P   23121.73339786  .00007641  00000-0  53120-3 0  9993","RA_OF_ASC_NODE":"238.5543","PERIOD":"95.592"},{"REV_AT_EPOCH":"15899","DECAY_DATE":null,"BSTAR":"0.00149560000000","RCS_SIZE":"LARGE","ARG_OF_PERICENTER":"55.6574","MEAN_MOTION":"15.06420826","REF_FRAME":"TEME","MEAN_MOTION_DDOT":"0.0000000000000","COUNTRY_CODE":"US","OBJECT_NAME":"STARLINK-1500","MEAN_ELEMENT_THEORY":"SGP4","TLE_LINE2":"2 45744  53.0529 238.7565 0001016  55.6574 304.4511 15.06420826158990","ELEMENT_SET_NO":"999","TIME_SYSTEM":"UTC","LAUNCH_DATE":"2020-06-13","SITE":"AFETR","EPHEMERIS_TYPE":"0","INCLINATION":"53.0529","SEMIMAJOR_AXIS":"6925.285","FILE":"3898518","MEAN_MOTION_DOT":"0.00022078","OBJECT_ID":"2020-038Q","TLE_LINE1":"1 45744U 20038Q   23121.70487170  .00022078  00000-0  14956-2 0  9996","PERIOD":"95.591","RA_OF_ASC_NODE":"238.7565","CLASSIFICATION_TYPE":"U","CENTER_NAME":"EARTH","ECCENTRICITY":"0.00010160","GP_ID":"231049339","PERIAPSIS":"546.446","OBJECT_TYPE":"PAYLOAD","NORAD_CAT_ID":"45744","MEAN_ANOMALY":"304.4511","EPOCH":"2023-05-01T16:55:00.914880","APOAPSIS":"547.853"}];
